CELESTIS-02             
1 25160U 98007D   22209.16231898 -.00000068  00000+0  27330-4 0  9994
2 25160 107.9867 348.7109 0061395  39.2485 132.7505 14.21636580268860
CELESTIS-03             
1 26034U 99070C   22209.13982382  .00009598  00000+0  44781-3 0  9998
2 26034  98.3106 219.1792 0009239   1.1695 358.9557 15.20067288227260
